IXPE                    
1 49954U 21121A   24271.66667824  .00011456  00000+0  82547-3 0  9994
2 49954   0.2312 351.7288 0008501   5.4496 191.3276 15.00160357  5762
